[{"OBJECT_NAME":"STARLINK-33666","OBJECT_ID":"2025-076Z","EPOCH":"2026-03-09T09:30:54.571680","MEAN_MOTION":15.27585194,"ECCENTRICITY":4.985e-5,"INCLINATION":42.9991,"RA_OF_ASC_NODE":323.5122,"ARG_OF_PERICENTER":2.6274,"MEAN_ANOMALY":357.458,"EPHEMERIS_TYPE":0,"CLASSIFICATION_TYPE":"U","NORAD_CAT_ID":63592,"ELEMENT_SET_NO":999,"REV_AT_EPOCH":5178,"BSTAR":0.0010730104,"MEAN_MOTION_DOT":0.00029387,"MEAN_MOTION_DDOT":0},{"OBJECT_NAME":"OBJECT H","OBJECT_ID":"2022-023H","EPOCH":"2026-03-09T22:57:41.313888","MEAN_MOTION":15.21889274,"ECCENTRICITY":0.00933376,"INCLINATION":63.6345,"RA_OF_ASC_NODE":356.5929,"ARG_OF_PERICENTER":305.1945,"MEAN_ANOMALY":54.0457,"EPHEMERIS_TYPE":0,"CLASSIFICATION_TYPE":"U","NORAD_CAT_ID":51953,"ELEMENT_SET_NO":999,"REV_AT_EPOCH":22114,"BSTAR":0.00043867493,"MEAN_MOTION_DOT":0.00011084,"MEAN_MOTION_DDOT":0}]
